{"type": "FeatureCollection", "features": [{"type": "Feature", "properties": {"norad_id": 26766, "name": "INTELSAT 10 (IS-10)", "group": "intelsat", "lat": -8.633070125389551, "lon": -31.400974121958505, "alt_km": 36100.61468232811, "timestamp": "2025-12-14T07:33:19.145578+00:00", "meta": {"OBJECT_NAME": "INTELSAT 10 (IS-10)", "OBJECT_ID": "2001-019A", "EPOCH": "2025-12-13T14:05:32.067744", "MEAN_MOTION": 0.99078362, "ECCENTRICITY": 0.00077388, "INCLINATION": 8.632, "RA_OF_ASC_NODE": 61.1493, "ARG_OF_PERICENTER": 225.9608, "MEAN_ANOMALY": 141.9213, "EPHEMERIS_TYPE": 0, "CLASSIFICATION_TYPE": "U", "NORAD_CAT_ID": 26766, "ELEMENT_SET_NO": 999, "REV_AT_EPOCH": 4374, "BSTAR": 0, "MEAN_MOTION_DOT": -2.69e-06, "MEAN_MOTION_DDOT": 0}, "tle": {"line1": "1 26766U 01019A   25347.58717671 -.00000269  00000+0  00000+0 0  9997", "line2": "2 26766   8.6320  61.1493 0007738 225.9608 141.9213  0.99078362 43742"}}, "geometry": {"type": "Point", "coordinates": [-31.400974121958505, -8.633070125389551]}}, {"type": "Feature", "properties": {"norad_id": 26900, "name": "INTELSAT 902 (IS-902)", "group": "intelsat", "lat": 5.390689759330725, "lon": 146.33556548858792, "alt_km": 35792.736910660016, "timestamp": "2025-12-14T07:33:19.145604+00:00", "meta": {"OBJECT_NAME": "INTELSAT 902 (IS-902)", "OBJECT_ID": "2001-039A", "EPOCH": "2025-12-11T04:42:42.842016", "MEAN_MOTION": 1.00272526, "ECCENTRICITY": 0.00044264, "INCLINATION": 5.6424, "RA_OF_ASC_NODE": 74.0881, "ARG_OF_PERICENTER": 184.9809, "MEAN_ANOMALY": 201.6699, "EPHEMERIS_TYPE": 0, "CLASSIFICATION_TYPE": "U", "NORAD_CAT_ID": 26900, "ELEMENT_SET_NO": 999, "REV_AT_EPOCH": 8881, "BSTAR": 0, "MEAN_MOTION_DOT": -2.78e-06, "MEAN_MOTION_DDOT": 0}, "tle": {"line1": "1 26900U 01039A   25345.19632919 -.00000278  00000+0  00000+0 0  9995", "line2": "2 26900   5.6424  74.0881 0004426 184.9809 201.6699  1.00272526 88816"}}, "geometry": {"type": "Point", "coordinates": [146.33556548858792, 5.390689759330725]}}, {"type": "Feature", "properties": {"norad_id": 27380, "name": "INTELSAT 904 (IS-904)", "group": "intelsat", "lat": 6.4466096564813, "lon": 165.07438968387962, "alt_km": 35789.893310599466, "timestamp": "2025-12-14T07:33:19.145620+00:00", "meta": {"OBJECT_NAME": "INTELSAT 904 (IS-904)", "OBJECT_ID": "2002-007A", "EPOCH": "2025-12-13T15:00:41.787360", "MEAN_MOTION": 1.00272569, "ECCENTRICITY": 0.00015439, "INCLINATION": 6.457, "RA_OF_ASC_NODE": 71.4225, "ARG_OF_PERICENTER": 231.5446, "MEAN_ANOMALY": 333.2596, "EPHEMERIS_TYPE": 0, "CLASSIFICATION_TYPE": "U", "NORAD_CAT_ID": 27380, "ELEMENT_SET_NO": 999, "REV_AT_EPOCH": 4990, "BSTAR": 0, "MEAN_MOTION_DOT": -2.13e-06, "MEAN_MOTION_DDOT": 0}, "tle": {"line1": "1 27380U 02007A   25347.62548365 -.00000213  00000+0  00000+0 0  9994", "line2": "2 27380   6.4570  71.4225 0001543 231.5446 333.2596  1.00272569 49908"}}, "geometry": {"type": "Point", "coordinates": [165.07438968387962, 6.4466096564813]}}, {"type": "Feature", "properties": {"norad_id": 27426, "name": "DIRECTV 5 (TEMPO 1)", "group": "intelsat", "lat": 0.6943582792925298, "lon": 86.41647214779952, "alt_km": 35800.261003735184, "timestamp": "2025-12-14T07:33:19.145634+00:00", "meta": {"OBJECT_NAME": "DIRECTV 5 (TEMPO 1)", "OBJECT_ID": "2002-023A", "EPOCH": "2025-12-13T12:58:10.801056", "MEAN_MOTION": 1.00272204, "ECCENTRICITY": 0.00034433, "INCLINATION": 4.4044, "RA_OF_ASC_NODE": 77.6443, "ARG_OF_PERICENTER": 197.8329, "MEAN_ANOMALY": 251.4153, "EPHEMERIS_TYPE": 0, "CLASSIFICATION_TYPE": "U", "NORAD_CAT_ID": 27426, "ELEMENT_SET_NO": 999, "REV_AT_EPOCH": 8626, "BSTAR": 0, "MEAN_MOTION_DOT": -4.3e-07, "MEAN_MOTION_DDOT": 0}, "tle": {"line1": "1 27426U 02023A   25347.54040279 -.00000043  00000+0  00000+0 0  9996", "line2": "2 27426   4.4044  77.6443 0003443 197.8329 251.4153  1.00272204 86264"}}, "geometry": {"type": "Point", "coordinates": [86.41647214779952, 0.6943582792925298]}}, {"type": "Feature", "properties": {"norad_id": 27438, "name": "INTELSAT 905 (IS-905)", "group": "intelsat", "lat": -1.355091757462669, "lon": 59.465062057968545, "alt_km": 35795.06330543641, "timestamp": "2025-12-14T07:33:19.145647+00:00", "meta": {"OBJECT_NAME": "INTELSAT 905 (IS-905)", "OBJECT_ID": "2002-027A", "EPOCH": "2025-12-13T10:28:18.325344", "MEAN_MOTION": 1.00273844, "ECCENTRICITY": 0.0002665, "INCLINATION": 6.2877, "RA_OF_ASC_NODE": 72.0486, "ARG_OF_PERICENTER": 200.4661, "MEAN_ANOMALY": 189.7386, "EPHEMERIS_TYPE": 0, "CLASSIFICATION_TYPE": "U", "NORAD_CAT_ID": 27438, "ELEMENT_SET_NO": 999, "REV_AT_EPOCH": 4950, "BSTAR": 0, "MEAN_MOTION_DOT": 1.06e-06, "MEAN_MOTION_DDOT": 0}, "tle": {"line1": "1 27438U 02027A   25347.43632321  .00000106  00000+0  00000+0 0  9995", "line2": "2 27438   6.2877  72.0486 0002665 200.4661 189.7386  1.00273844 49500"}}, "geometry": {"type": "Point", "coordinates": [59.465062057968545, -1.355091757462669]}}, {"type": "Feature", "properties": {"norad_id": 27445, "name": "GALAXY 3C (G-3C)", "group": "intelsat", "lat": 1.198969927394525, "lon": 101.65066804139069, "alt_km": 35784.05866960237, "timestamp": "2025-12-14T07:33:19.145659+00:00", "meta": {"OBJECT_NAME": "GALAXY 3C (G-3C)", "OBJECT_ID": "2002-030A", "EPOCH": "2025-12-13T11:58:04.541952", "MEAN_MOTION": 1.00271583, "ECCENTRICITY": 0.00010728, "INCLINATION": 3.2663, "RA_OF_ASC_NODE": 80.4998, "ARG_OF_PERICENTER": 85.3822, "MEAN_ANOMALY": 1.2028, "EPHEMERIS_TYPE": 0, "CLASSIFICATION_TYPE": "U", "NORAD_CAT_ID": 27445, "ELEMENT_SET_NO": 999, "REV_AT_EPOCH": 4463, "BSTAR": 0, "MEAN_MOTION_DOT": -1.38e-06, "MEAN_MOTION_DDOT": 0}, "tle": {"line1": "1 27445U 02030A   25347.49866368 -.00000138  00000+0  00000+0 0  9999", "line2": "2 27445   3.2663  80.4998 0001072  85.3822   1.2028  1.00271583 44637"}}, "geometry": {"type": "Point", "coordinates": [101.65066804139069, 1.198969927394525]}}, {"type": "Feature", "properties": {"norad_id": 27513, "name": "INTELSAT 906 (IS-906)", "group": "intelsat", "lat": -0.5280506453959644, "lon": -99.34353734388264, "alt_km": 35760.14316051008, "timestamp": "2025-12-14T07:33:19.145672+00:00", "meta": {"OBJECT_NAME": "INTELSAT 906 (IS-906)", "OBJECT_ID": "2002-041A", "EPOCH": "2025-12-13T08:37:03.527040", "MEAN_MOTION": 1.00271606, "ECCENTRICITY": 0.00062023, "INCLINATION": 5.3305, "RA_OF_ASC_NODE": 75.2238, "ARG_OF_PERICENTER": 193.3176, "MEAN_ANOMALY": 7.1431, "EPHEMERIS_TYPE": 0, "CLASSIFICATION_TYPE": "U", "NORAD_CAT_ID": 27513, "ELEMENT_SET_NO": 999, "REV_AT_EPOCH": 8516, "BSTAR": 0, "MEAN_MOTION_DOT": 2.6e-07, "MEAN_MOTION_DDOT": 0}, "tle": {"line1": "1 27513U 02041A   25347.35906860  .00000026  00000+0  00000+0 0  9999", "line2": "2 27513   5.3305  75.2238 0006202 193.3176   7.1431  1.00271606 85162"}}, "geometry": {"type": "Point", "coordinates": [-99.34353734388264, -0.5280506453959644]}}, {"type": "Feature", "properties": {"norad_id": 27954, "name": "GALAXY 13 (HORIZONS-1)", "group": "intelsat", "lat": -0.5823141692861467, "lon": 46.567490773208235, "alt_km": 35793.61586439472, "timestamp": "2025-12-14T07:33:19.145685+00:00", "meta": {"OBJECT_NAME": "GALAXY 13 (HORIZONS-1)", "OBJECT_ID": "2003-044A", "EPOCH": "2025-12-13T14:34:48.967680", "MEAN_MOTION": 1.0027193, "ECCENTRICITY": 0.00020585, "INCLINATION": 0.9379, "RA_OF_ASC_NODE": 86.4573, "ARG_OF_PERICENTER": 169.6092, "MEAN_ANOMALY": 255.17, "EPHEMERIS_TYPE": 0, "CLASSIFICATION_TYPE": "U", "NORAD_CAT_ID": 27954, "ELEMENT_SET_NO": 999, "REV_AT_EPOCH": 4471, "BSTAR": 0, "MEAN_MOTION_DOT": 1.48e-06, "MEAN_MOTION_DDOT": 0}, "tle": {"line1": "1 27954U 03044A   25347.60751120  .00000148  00000+0  00000+0 0  9992", "line2": "2 27954   0.9379  86.4573 0002058 169.6092 255.1700  1.00271930 44717"}}, "geometry": {"type": "Point", "coordinates": [46.567490773208235, -0.5823141692861467]}}, {"type": "Feature", "properties": {"norad_id": 28358, "name": "INTELSAT 10-02", "group": "intelsat", "lat": 0.004508007181159552, "lon": -164.423926750968, "alt_km": 35786.8917517405, "timestamp": "2025-12-14T07:33:19.145697+00:00", "meta": {"OBJECT_NAME": "INTELSAT 10-02", "OBJECT_ID": "2004-022A", "EPOCH": "2025-12-13T15:09:25.950240", "MEAN_MOTION": 1.00271167, "ECCENTRICITY": 0.00010752, "INCLINATION": 0.0253, "RA_OF_ASC_NODE": 68.9709, "ARG_OF_PERICENTER": 225.25, "MEAN_ANOMALY": 14.7327, "EPHEMERIS_TYPE": 0, "CLASSIFICATION_TYPE": "U", "NORAD_CAT_ID": 28358, "ELEMENT_SET_NO": 999, "REV_AT_EPOCH": 7869, "BSTAR": 0, "MEAN_MOTION_DOT": 5e-08, "MEAN_MOTION_DDOT": 0}, "tle": {"line1": "1 28358U 04022A   25347.63155035  .00000005  00000+0  00000+0 0  9996", "line2": "2 28358   0.0253  68.9709 0001075 225.2500  14.7327  1.00271167 78695"}}, "geometry": {"type": "Point", "coordinates": [-164.423926750968, 0.004508007181159552]}}, {"type": "Feature", "properties": {"norad_id": 28626, "name": "XM-3 (RHYTHM)", "group": "intelsat", "lat": -0.12933992993797871, "lon": -56.61828468487511, "alt_km": 36156.014852499255, "timestamp": "2025-12-14T07:33:19.145710+00:00", "meta": {"OBJECT_NAME": "XM-3 (RHYTHM)", "OBJECT_ID": "2005-008A", "EPOCH": "2025-12-13T15:41:00.424896", "MEAN_MOTION": 0.98952073, "ECCENTRICITY": 0.00016007, "INCLINATION": 0.1771, "RA_OF_ASC_NODE": 81.6242, "ARG_OF_PERICENTER": 272.7978, "MEAN_ANOMALY": 73.3958, "EPHEMERIS_TYPE": 0, "CLASSIFICATION_TYPE": "U", "NORAD_CAT_ID": 28626, "ELEMENT_SET_NO": 999, "REV_AT_EPOCH": 4075, "BSTAR": 0, "MEAN_MOTION_DOT": -1.19e-06, "MEAN_MOTION_DDOT": 0}, "tle": {"line1": "1 28626U 05008A   25347.65347714 -.00000119  00000+0  00000+0 0  9995", "line2": "2 28626   0.1771  81.6242 0001600 272.7978  73.3958  0.98952073 40758"}}, "geometry": {"type": "Point", "coordinates": [-56.61828468487511, -0.12933992993797871]}}]}